{"type":"FeatureCollection","features":[{"type":"Feature","properties":{"t":"river"},"geometry":{"type":"Polygon","coordinates":[[[-113.2243,53.71169],[-113.24434,53.69911],[-113.25161,53.69591],[-113.25769,53.69419],[-113.26339,53.69203],[-113.27035,53.68778],[-113.28211,53.6821],[-113.28634,53.68065],[-113.29052,53.67761],[-113.29281,53.67519],[-113.29357,53.67323],[-113.29288,53.67231],[-113.29037,53.67225],[-113.28199,53.67363],[-113.27711,53.67321],[-113.27569,53.67294],[-113.27368,53.67188],[-113.27169,53.66893],[-113.27183,53.66754],[-113.27539,53.66577],[-113.2803,53.66199],[-113.28334,53.65729],[-113.28481,53.65622],[-113.28523,53.65499],[-113.28425,53.65371],[-113.28535,53.64878],[-113.28513,53.647],[-113.28679,53.64388],[-113.28932,53.64171],[-113.2934,53.64005],[-113.29928,53.63918],[-113.31105,53.63886],[-113.31268,53.63851],[-113.31292,53.63793],[-113.31666,53.63733],[-113.32112,53.63519],[-113.32221,53.63408],[-113.32254,53.63274],[-113.32214,53.62985],[-113.32112,53.62851],[-113.31827,53.62648],[-113.31549,53.62555],[-113.30409,53.62312],[-113.29937,53.62133],[-113.29707,53.61951],[-113.29575,53.61643],[-113.29595,53.61281],[-113.29797,53.60934],[-113.30013,53.60727],[-113.30739,53.60328],[-113.31419,53.6017],[-113.32104,53.60218],[-113.33149,53.60353],[-113.33788,53.60495],[-113.33857,53.60569],[-113.34174,53.60647],[-113.35086,53.60745],[-113.35557,53.60737],[-113.36168,53.60601],[-113.36468,53.60454],[-113.36631,53.60314],[-113.36981,53.59832],[-113.37039,53.59486],[-113.36889,53.58967],[-113.36586,53.58383],[-113.36559,53.57902],[-113.36687,53.5762],[-113.36984,53.57423],[-113.3702,53.57368],[-113.36966,53.57294],[-113.37361,53.56936],[-113.37679,53.56549],[-113.37764,53.56365],[-113.37837,53.55811],[-113.3801,53.55399],[-113.38149,53.55269],[-113.38704,53.55082],[-113.39367,53.55111],[-113.39634,53.55235],[-113.40407,53.55857],[-113.40713,53.56041],[-113.41076,53.56197],[-113.4151,53.56258],[-113.41996,53.56234],[-113.42346,53.56166],[-113.42835,53.55973],[-113.43399,53.55657],[-113.43704,53.5558],[-113.43805,53.55497],[-113.44407,53.55373],[-113.44378,53.55425],[-113.4494,53.55466],[-113.45086,53.55458],[-113.45144,53.55415],[-113.44547,53.55354],[-113.44937,53.55343],[-113.45967,53.5549],[-113.46467,53.55445],[-113.46672,53.55365],[-113.46733,53.55156],[-113.46606,53.54917],[-113.46162,53.54484],[-113.46105,53.54286],[-113.46189,53.5407],[-113.4636,53.53922],[-113.46556,53.53866],[-113.47978,53.53972],[-113.48215,53.53952],[-113.48424,53.53882],[-113.48659,53.53673],[-113.48793,53.53169],[-113.48953,53.52865],[-113.491,53.52745],[-113.49415,53.52619],[-113.49825,53.52634],[-113.503,53.52812],[-113.50755,53.52933],[-113.5108,53.52968],[-113.51416,53.5295],[-113.52572,53.5309],[-113.53048,53.53215],[-113.53899,53.5358],[-113.54286,53.53696],[-113.54875,53.53721],[-113.55279,53.53633],[-113.55455,53.53523],[-113.55585,53.53364],[-113.55632,53.53156],[-113.55559,53.52919],[-113.55211,53.52624],[-113.54427,53.52244],[-113.54186,53.52022],[-113.54067,53.51797],[-113.54103,53.513],[-113.54363,53.50986],[-113.54697,53.50779],[-113.55234,53.50633],[-113.57455,53.50501],[-113.58086,53.50361],[-113.5871,53.50141],[-113.58917,53.49984],[-113.5897,53.49765],[-113.58687,53.49184],[-113.58621,53.48767],[-113.5876,53.48368],[-113.58958,53.48179],[-113.59181,53.48086],[-113.59341,53.48045],[-113.59751,53.48022],[-113.60132,53.48098],[-113.61063,53.48607],[-113.6171,53.48816],[-113.62004,53.48823],[-113.62276,53.48779],[-113.62517,53.48667],[-113.62611,53.4858],[-113.62671,53.48326],[-113.62446,53.47966],[-113.62071,53.47776],[-113.60941,53.47439],[-113.60814,53.47372],[-113.60511,53.47111],[-113.60441,53.46776],[-113.60637,53.46424],[-113.60877,53.4623],[-113.61352,53.45994],[-113.61678,53.45774],[-113.61857,53.45549],[-113.62198,53.45247],[-113.62517,53.45107],[-113.62981,53.44788],[-113.63362,53.44638],[-113.63345,53.44688],[-113.63484,53.44598],[-113.63765,53.44218],[-113.63956,53.43776],[-113.64664,53.43348],[-113.65185,53.43179],[-113.653,53.43077],[-113.65328,53.42929],[-113.65465,53.42789],[-113.65731,53.42633],[-113.65749,53.42296],[-113.65622,53.42186],[-113.65626,53.42157],[-113.65719,53.42222],[-113.65327,53.41178],[-113.64736,53.40644],[-113.64842,53.40696],[-113.64712,53.40574],[-113.64416,53.39796],[-113.64357,53.39302],[-113.64392,53.39121],[-113.64528,53.38888],[-113.64984,53.38433],[-113.65296,53.38232],[-113.65609,53.38125],[-113.66346,53.38016],[-113.66686,53.3802],[-113.67147,53.3817],[-113.67977,53.38351],[-113.68369,53.38336],[-113.68662,53.38251],[-113.69071,53.3783],[-113.69113,53.37507],[-113.68409,53.36861],[-113.68478,53.365],[-113.68418,53.36267],[-113.68471,53.36078],[-113.6875,53.35694],[-113.69064,53.35508],[-113.69375,53.35414],[-113.70057,53.35447],[-113.70347,53.35512],[-113.70459,53.35576],[-113.70581,53.35795],[-113.70643,53.36183],[-113.70545,53.36815],[-113.70708,53.37071],[-113.70972,53.37135],[-113.71434,53.37128],[-113.72245,53.37041],[-113.72995,53.37033],[-113.73726,53.37068],[-113.74455,53.37191],[-113.74827,53.37165],[-113.75103,53.36977],[-113.75329,53.36684],[-113.75466,53.36342],[-113.75797,53.35963],[-113.76107,53.35781],[-113.76601,53.35681],[-113.76597,53.35801],[-113.7613,53.35925],[-113.75887,53.36093],[-113.75324,53.37001],[-113.75131,53.372],[-113.74958,53.37284],[-113.74669,53.3731],[-113.74183,53.37243],[-113.73523,53.37252],[-113.72895,53.37138],[-113.71981,53.37166],[-113.71103,53.37277],[-113.70817,53.37246],[-113.70578,53.37126],[-113.70355,53.36845],[-113.70372,53.36214],[-113.70013,53.36003],[-113.69623,53.3565],[-113.69401,53.35627],[-113.69251,53.35704],[-113.68966,53.35757],[-113.68817,53.35856],[-113.68653,53.36228],[-113.6865,53.36421],[-113.68756,53.36645],[-113.69372,53.3715],[-113.69432,53.37362],[-113.69263,53.38063],[-113.69017,53.3829],[-113.68667,53.38467],[-113.68323,53.38536],[-113.68145,53.38536],[-113.66426,53.38232],[-113.66074,53.38208],[-113.65767,53.38229],[-113.6523,53.38447],[-113.64772,53.38992],[-113.64615,53.39685],[-113.64988,53.40437],[-113.65172,53.4064],[-113.65518,53.4088],[-113.65702,53.41139],[-113.65763,53.41561],[-113.65923,53.41981],[-113.65889,53.42271],[-113.65933,53.42626],[-113.66017,53.42687],[-113.66087,53.42554],[-113.65985,53.43001],[-113.65871,53.43118],[-113.65697,53.43198],[-113.64965,53.43407],[-113.64353,53.43749],[-113.64142,53.43998],[-113.63984,53.44007],[-113.64005,53.44077],[-113.63875,53.44291],[-113.63866,53.44409],[-113.63702,53.44595],[-113.63919,53.44487],[-113.64035,53.44266],[-113.63923,53.44548],[-113.6286,53.45118],[-113.62393,53.45558],[-113.62061,53.45727],[-113.61727,53.45985],[-113.60906,53.46466],[-113.60766,53.46579],[-113.60641,53.468],[-113.60696,53.4708],[-113.60878,53.47257],[-113.61282,53.47405],[-113.62227,53.47638],[-113.62588,53.47837],[-113.62724,53.47985],[-113.62844,53.48256],[-113.62855,53.48567],[-113.62764,53.48692],[-113.62409,53.48907],[-113.61796,53.49001],[-113.61157,53.48882],[-113.60877,53.48767],[-113.6031,53.484],[-113.59921,53.48231],[-113.59556,53.48164],[-113.59218,53.48207],[-113.59036,53.48299],[-113.5895,53.48421],[-113.58904,53.48691],[-113.58933,53.48909],[-113.5921,53.49559],[-113.59211,53.49891],[-113.59052,53.50093],[-113.58852,53.5024],[-113.58215,53.50481],[-113.57504,53.50669],[-113.56107,53.50794],[-113.55394,53.50816],[-113.54999,53.50904],[-113.54611,53.51076],[-113.54427,53.51238],[-113.54319,53.51461],[-113.54387,53.51892],[-113.547,53.52175],[-113.55462,53.52492],[-113.55649,53.52651],[-113.55874,53.52978],[-113.55866,53.53311],[-113.55692,53.53582],[-113.55552,53.53681],[-113.54919,53.53862],[-113.54571,53.53902],[-113.54131,53.53873],[-113.52639,53.53301],[-113.51906,53.53182],[-113.51052,53.53148],[-113.50266,53.52973],[-113.49938,53.52835],[-113.49493,53.52741],[-113.4926,53.52803],[-113.49098,53.52942],[-113.49012,53.53118],[-113.48949,53.53585],[-113.48799,53.53824],[-113.48632,53.53934],[-113.48281,53.54028],[-113.4779,53.54077],[-113.47262,53.54086],[-113.46658,53.54033],[-113.46364,53.54115],[-113.46319,53.54195],[-113.46362,53.5442],[-113.46974,53.55145],[-113.46967,53.55237],[-113.46792,53.55442],[-113.46394,53.55578],[-113.45895,53.55623],[-113.44599,53.55536],[-113.44148,53.5557],[-113.43463,53.55796],[-113.43041,53.56068],[-113.42612,53.56275],[-113.42171,53.5639],[-113.41494,53.56412],[-113.4112,53.56353],[-113.40483,53.56132],[-113.40072,53.55858],[-113.39548,53.55424],[-113.39205,53.5523],[-113.38811,53.5519],[-113.38561,53.55251],[-113.38349,53.55354],[-113.38164,53.55566],[-113.38132,53.55858],[-113.38032,53.55871],[-113.37949,53.56569],[-113.37871,53.56617],[-113.37832,53.56755],[-113.3703,53.57618],[-113.36858,53.57973],[-113.3682,53.58295],[-113.36879,53.5862],[-113.37235,53.58999],[-113.3735,53.59372],[-113.37336,53.59686],[-113.37255,53.59896],[-113.36952,53.60358],[-113.36466,53.60679],[-113.36063,53.60824],[-113.35535,53.60923],[-113.34721,53.60898],[-113.33071,53.60546],[-113.32032,53.60383],[-113.31565,53.60357],[-113.31238,53.60368],[-113.3084,53.60466],[-113.30285,53.60758],[-113.29992,53.61054],[-113.29853,53.61297],[-113.29806,53.61557],[-113.29898,53.6175],[-113.30149,53.61947],[-113.3043,53.62076],[-113.31034,53.62303],[-113.31767,53.6246],[-113.32167,53.62647],[-113.32431,53.62912],[-113.32536,53.63279],[-113.32278,53.63653],[-113.31766,53.6391],[-113.3098,53.64074],[-113.29864,53.64061],[-113.29437,53.6413],[-113.29133,53.64232],[-113.28915,53.64456],[-113.28738,53.65228],[-113.28759,53.65482],[-113.28513,53.6594],[-113.28173,53.66327],[-113.2745,53.66806],[-113.2738,53.66968],[-113.27589,53.67165],[-113.27797,53.67209],[-113.28467,53.67067],[-113.2858,53.67092],[-113.29148,53.67042],[-113.29333,53.67083],[-113.29497,53.67177],[-113.29526,53.67325],[-113.29356,53.67672],[-113.28393,53.68528],[-113.2747,53.68809],[-113.26305,53.69417],[-113.24807,53.69923],[-113.23238,53.70959],[-113.2242,53.71377],[-113.2243,53.71169]],[[-113.65805,53.43051],[-113.65743,53.43064],[-113.65741,53.43105],[-113.65793,53.43081],[-113.65805,53.43051]],[[-113.69363,53.372],[-113.69285,53.37153],[-113.69367,53.37265],[-113.69363,53.372]],[[-113.6531,53.40968],[-113.6525,53.40969],[-113.65373,53.41088],[-113.65375,53.41033],[-113.6531,53.40968]],[[-113.69122,53.38105],[-113.69093,53.38011],[-113.69029,53.38155],[-113.69122,53.38105]],[[-113.2843,53.68337],[-113.28376,53.68317],[-113.28272,53.68376],[-113.28416,53.6838],[-113.2843,53.68337]],[[-113.28316,53.6845],[-113.28216,53.68502],[-113.281,53.68592],[-113.28251,53.68534],[-113.28316,53.6845]],[[-113.73584,53.37223],[-113.73396,53.37146],[-113.73304,53.3714],[-113.73584,53.37223]],[[-113.69937,53.35806],[-113.69879,53.35742],[-113.69825,53.35813],[-113.69927,53.359],[-113.69937,53.35806]],[[-113.28342,53.68281],[-113.28183,53.68311],[-113.28025,53.68395],[-113.28248,53.68359],[-113.28342,53.68281]],[[-113.69353,53.37488],[-113.6926,53.37356],[-113.69207,53.37396],[-113.69285,53.37594],[-113.69353,53.37488]],[[-113.68886,53.38293],[-113.68842,53.38296],[-113.68323,53.3849],[-113.68589,53.38464],[-113.68886,53.38293]],[[-113.27755,53.68551],[-113.2758,53.68595],[-113.27393,53.68727],[-113.27748,53.6865],[-113.27755,53.68551]],[[-113.65437,53.4087],[-113.65215,53.40792],[-113.65178,53.4086],[-113.6536,53.40898],[-113.6548,53.4102],[-113.65529,53.41018],[-113.65437,53.4087]],[[-113.65897,53.42891],[-113.6569,53.42782],[-113.65576,53.42847],[-113.65831,53.43003],[-113.65897,53.42891]],[[-113.28259,53.68398],[-113.27845,53.68513],[-113.27801,53.68629],[-113.27942,53.68555],[-113.28089,53.68546],[-113.28259,53.68398]],[[-113.65481,53.42872],[-113.65381,53.42951],[-113.65374,53.43162],[-113.65619,53.43059],[-113.65585,53.42995],[-113.65633,53.4297],[-113.65481,53.42872]],[[-113.66629,53.38079],[-113.66469,53.38065],[-113.66158,53.38106],[-113.6665,53.38239],[-113.66833,53.38232],[-113.66629,53.38079]],[[-113.6904,53.37343],[-113.69114,53.37227],[-113.69071,53.3711],[-113.68859,53.36915],[-113.68564,53.36763],[-113.6849,53.36666],[-113.68452,53.36873],[-113.6886,53.37156],[-113.68957,53.373],[-113.6904,53.37343]],[[-113.69602,53.35621],[-113.69929,53.35742],[-113.70004,53.3595],[-113.70406,53.36214],[-113.70434,53.36007],[-113.70322,53.35716],[-113.70224,53.35585],[-113.70131,53.35546],[-113.69405,53.35527],[-113.69129,53.35601],[-113.68882,53.35744],[-113.69032,53.35693],[-113.69221,53.35687],[-113.69455,53.356],[-113.69602,53.35621]]]}},{"type":"Feature","properties":{"t":"henday"},"geometry":{"type":"MultiLineString","coordinates":[[[-113.34432,53.45697],[-113.34494,53.45378],[-113.34686,53.45023],[-113.34978,53.44717],[-113.35452,53.44404],[-113.37091,53.4381],[-113.3817,53.436],[-113.44382,53.43583],[-113.46432,53.4375],[-113.48259,53.4378],[-113.49246,53.43731],[-113.51274,53.43498],[-113.53629,53.43461],[-113.54386,53.4333],[-113.55606,53.42984],[-113.56499,53.42862],[-113.57376,53.4289],[-113.58388,53.43119],[-113.59096,53.43455],[-113.59464,53.43737],[-113.60632,53.4529],[-113.61336,53.45889],[-113.6189,53.46209],[-113.62552,53.46491],[-113.64429,53.4701],[-113.64835,53.47159],[-113.65494,53.47581],[-113.65797,53.4797],[-113.65919,53.48512],[-113.65868,53.55552],[-113.66144,53.57226],[-113.66079,53.57614],[-113.65925,53.57952],[-113.65443,53.58504],[-113.64662,53.59086],[-113.58847,53.62359],[-113.58223,53.62668],[-113.57287,53.63021],[-113.5303,53.64341],[-113.51995,53.64569],[-113.50829,53.64666],[-113.44177,53.64649],[-113.43378,53.64519],[-113.38547,53.63243],[-113.36409,53.62058],[-113.35813,53.61578],[-113.35513,53.61124],[-113.34536,53.58649],[-113.34478,53.58188],[-113.34522,53.56946],[-113.34465,53.5536],[-113.34295,53.54102],[-113.34528,53.52705],[-113.34437,53.5182],[-113.34432,53.49661],[-113.34295,53.48431],[-113.34441,53.46526]],[[-113.34432,53.45697],[-113.34566,53.45843],[-113.34602,53.45987],[-113.34441,53.46526]],[[-113.34441,53.46526],[-113.34432,53.45697]],[[-113.34377,53.45647],[-113.34432,53.45697]],[[-113.34377,53.45647],[-113.34445,53.45345],[-113.34674,53.44955],[-113.34945,53.44686],[-113.35304,53.44439],[-113.35813,53.44201],[-113.37015,53.43794],[-113.38102,53.43572],[-113.38635,53.43537],[-113.44434,53.43547],[-113.46432,53.43714],[-113.48625,53.4374],[-113.51148,53.43471],[-113.53613,53.4343],[-113.54378,53.43297],[-113.55683,53.42933],[-113.5667,53.42824],[-113.57204,53.42842],[-113.57764,53.42917],[-113.58662,53.43181],[-113.59119,53.43424],[-113.59502,53.43713],[-113.60635,53.45226],[-113.61379,53.45866],[-113.62401,53.46395],[-113.63019,53.46603],[-113.645,53.46997],[-113.64973,53.47184],[-113.65552,53.47578],[-113.659,53.48078],[-113.65973,53.48476],[-113.65942,53.55667],[-113.66198,53.57333],[-113.65984,53.57961],[-113.65456,53.58574],[-113.6461,53.59179],[-113.58492,53.62599],[-113.57334,53.63057],[-113.53059,53.64385],[-113.52311,53.64565],[-113.51611,53.64667],[-113.50744,53.64714],[-113.44118,53.64691],[-113.43366,53.64567],[-113.39095,53.63464],[-113.38535,53.63282],[-113.38099,53.63079],[-113.36326,53.62061],[-113.3575,53.61588],[-113.35487,53.61209],[-113.34478,53.58681],[-113.34413,53.58198],[-113.34458,53.56889],[-113.34386,53.55201],[-113.3423,53.54125],[-113.3446,53.52695],[-113.34376,53.51905],[-113.34368,53.4973],[-113.34237,53.48382],[-113.3437,53.47027],[-113.34362,53.46203]],[[-113.34362,53.46203],[-113.34377,53.45647]]]}}]}